CUTE-1 (CO-55)          
1 27844U 03031E   24054.91543151  .00000528  00000+0  25309-3 0  9992
2 27844  98.6798  63.5374 0010816 113.9385 246.2928 14.23091939 71538
CUBESAT XI-IV (CO-57)   
1 27848U 03031J   24054.94635009  .00000452  00000+0  22185-3 0  9998
2 27848  98.6831  63.8738 0010578 128.0818 232.1316 14.22558426 71296
CUBESAT XI-V            
1 28895U 05043F   24054.81509782  .00002491  00000+0  45310-3 0  9990
2 28895  98.1813 190.6724 0015916   2.5409 357.5873 14.66950487977680
CUTE-1.7+APD II (CO-65) 
1 32785U 08021C   24054.56621760  .00006167  00000+0  56750-3 0  9999
2 32785  97.7407  21.0968 0011178 357.2498   2.8659 14.95060137858347
AAUSAT-II               
1 32788U 08021F   24054.87549005  .00017800  00000+0  10453-2 0  9992
2 32788  97.5869  35.3588 0005567 184.3626 175.7556 15.11761227861025
SEEDS II (CO-66)        
1 32791U 08021J   24054.44864558  .00008382  00000+0  65937-3 0  9995
2 32791  97.6833  26.5800 0005551 334.0746  26.0199 15.01077460859374
SWISSCUBE               
1 35932U 09051B   24055.37533693  .00001729  00000+0  38192-3 0  9996
2 35932  98.4886 296.3551 0006617 318.1240  41.9452 14.58589039766003
BEESAT-1                
1 35933U 09051C   24054.60711367  .00001413  00000+0  31545-3 0  9993
2 35933  98.4814 296.6227 0005200 337.0662  23.0303 14.58383261765928
ITUPSAT1                
1 35935U 09051E   24055.15906556  .00001239  00000+0  28403-3 0  9997
2 35935  98.4912 297.0272 0007529 337.9272  22.1601 14.57375359765688
TISAT 1                 
1 36799U 10035E   24054.90401254  .00007875  00000+0  63573-3 0  9996
2 36799  98.1099 299.5279 0006873 227.1093 132.9552 15.00122763739916
M-CUBED & EXP-1 PRIME   
1 37855U 11061F   24054.89849799  .00061869  00000+0  10183-2 0  9999
2 37855 101.6844 168.3396 0077472 336.3466  23.4214 15.48730188675197
AEROCUBE 4.5A           
1 38767U 12048K   24054.91916964  .00013298  00000+0  80628-3 0  9995
2 38767  64.6642 320.4154 0103750  60.4561 300.6852 15.06366329243237
AEROCUBE 4.5B           
1 38768U 12048L   24054.91302632  .00019181  00000+0  86819-3 0  9992
2 38768  64.6582 253.2668 0084792  49.1815 311.6622 15.17752783244046
STRAND-1                
1 39090U 13009E   24055.49217235  .00000629  00000+0  23168-3 0  9992
2 39090  98.3819 246.9028 0008053 227.5556 132.4950 14.35906724575945
BRITE-AUSTRIA           
1 39091U 13009F   24054.75219085  .00000392  00000+0  15055-3 0  9999
2 39091  98.3856 245.4439 0009398 238.1802 121.8470 14.35692756575847
NEE-01 PEGASO           
1 39151U 13018B   24055.28828804  .00003560  00000+0  42626-3 0  9994
2 39151  98.0224 171.4874 0016246  53.9049 306.3666 14.84674737585073
ESTCUBE 1               
1 39161U 13021C   24055.18063550  .00002278  00000+0  34073-3 0  9999
2 39161  97.8420 125.1225 0008026 233.5425 126.5045 14.75636343580312
POPACS 1                
1 39268U 13055D   24055.36314821  .00031193  00000+0  59063-3 0  9998
2 39268  80.9824 280.9481 0441946  96.2159 268.9572 14.83661585545081
POPACS 2                
1 39269U 13055E   24054.54589756  .00024430  00000+0  58885-3 0  9996
2 39269  81.0082   3.4295 0568011 311.6921  43.6959 14.52376985538931
POPACS 3                
1 39270U 13055F   24054.95314550  .00009702  00000+0  26880-3 0  9996
2 39270  81.0077  50.0413 0641995  82.4324 284.9264 14.33749888537270
ZACUBE-1 (TSHEPISOSAT)  
1 39417U 13066B   24055.44054140  .00005051  00000+0  54732-3 0  9992
2 39417  97.7212  14.1980 0052340 174.3645 185.8172 14.87636080554662
WNISAT-1                
1 39423U 13066H   24055.48519939  .00001048  00000+0  20989-3 0  9994
2 39423  97.6778 259.0010 0171250   6.6376 353.7034 14.54853974544118
TRITON-1                
1 39427U 13066M   24055.44350410  .00003750  00000+0  54192-3 0  9996
2 39427  97.8436 337.1958 0106331  88.1358 273.2024 14.72934263549657
DELFI-N3XT              
1 39428U 13066N   24054.78581105  .00006287  00000+0  83871-3 0  9994
2 39428  97.8401 336.3293 0106287  98.6785 262.6482 14.76019100549202
GOMX-1                  
1 39430U 13066Q   24055.50580444  .00003151  00000+0  53733-3 0  9994
2 39430  97.7501 296.7294 0140479 253.9118 104.6580 14.63354470546414
CUBEBUG-2 (LO-74)       
1 39440U 13066AA  24055.39039009  .00005927  00000+0  72324-3 0  9998
2 39440  97.8028   1.7225 0070028 286.2693  73.0825 14.81953055552677
NEE-02 KRYSAOR          
1 39441U 13066AB  24055.35629496  .00003960  00000+0  51660-3 0  9995
2 39441  97.8129 357.9515 0074305 306.7293  52.7110 14.79177634552268
FUNCUBE-1 (AO-73)       
1 39444U 13066AE  24055.46617218  .00005509  00000+0  56285-3 0  9998
2 39444  97.7068  17.0964 0050611 156.5932 203.7606 14.90025595553753
UWE-3                   
1 39446U 13066AG  24055.40215803  .00004939  00000+0  57194-3 0  9994
2 39446  97.7690   7.7988 0060758 232.1756 127.3951 14.84615606552402
BRITE-CA1 (TORONTO)     
1 40020U 14033L   24055.35048982  .00001856  00000+0  30816-3 0  9992
2 40020  97.8569 196.6514 0085092  95.5124 265.5795 14.68931358518263
DUCHIFAT-1              
1 40021U 14033M   24054.89796355  .00011897  00000+0  87367-3 0  9994
2 40021  98.0799  33.2729 0015145 121.9376 238.3323 15.03530567526936
NANOSATC-BR1            
1 40024U 14033Q   24054.87929393  .00008594  00000+0  68627-3 0  9993
2 40024  98.0606  22.5898 0010533 174.5073 185.6267 15.00485162526093
QB50P1                  
1 40025U 14033R   24054.84121230  .00007695  00000+0  66435-3 0  9991
2 40025  98.0305  12.1395 0010651 165.4716 194.6813 14.97503568525756
QB50P2                  
1 40032U 14033Y   24055.38717997  .00006757  00000+0  60050-3 0  9995
2 40032  97.9949   5.1095 0010430 166.0164 194.1348 14.96419029526165
PERSEUS-M2              
1 40037U 14033AD  24054.80204775  .00002588  00000+0  27587-3 0  9997
2 40037  97.9218 345.3033 0012594 206.5488 153.5086 14.89720804524795
PERSEUS-M1              
1 40039U 14033AF  24055.07707003  .00002886  00000+0  30891-3 0  9994
2 40039  97.9041 341.9526 0012445 204.6697 155.3926 14.89454599525201
POLYITAN-1              
1 40042U 14033AJ  24055.42133896  .00009682  00000+0  79368-3 0  9993
2 40042  98.0387  15.5235 0013772 157.3823 202.8009 14.99406745526280
TIGRISAT                
1 40043U 14033AK  24055.43849372  .00002900  00000+0  39884-3 0  9993
2 40043  97.6807 223.2398 0055506 314.8131  44.8575 14.77991113520958
AEROCUBE 6A             
1 40045U 14033AM  24055.46950304  .00005634  00000+0  70704-3 0  9999
2 40045  97.6615 233.6390 0051312 295.1873  64.4024 14.81606623521186
AEROCUBE 6B             
1 40046U 14033AN  24054.76067920  .00006554  00000+0  80609-3 0  9992
2 40046  97.6568 231.5733 0049933 293.4700  66.1269 14.82432729520889
UKUBE-1                 
1 40074U 14037F   24055.44850955  .00007045  00000+0  70644-3 0  9995
2 40074  98.3412 338.6241 0005733  86.2189 273.9684 14.91666744521817
BRITE-PL2 (HEWELIUSZ)   
1 40119U 14049B   24054.79974838  .00002562  00000+0  28430-3 0  9997
2 40119  97.8785 155.1084 0016611  25.1880 335.0143 14.88028918515564
CP10 (EXOCUBE)          
1 40380U 15003E   24054.92720935  .00067302  00000+0  88878-3 0  9995
2 40380  99.1031  48.0257 0061979 153.0062 207.4434 15.55826401501529
AEROCUBE 5C             
1 40965U 15058B   24055.16978160  .00007214  00000+0  70203-3 0  9995
2 40965  64.7738 351.3313 0182121 343.8726  15.6628 14.81570268240138
AEROCUBE 7              
1 40966U 15058C   24055.18048587  .00009154  00000+0  86108-3 0  9995
2 40966  64.7721 346.0224 0178048 343.5552  15.9823 14.83109239240217
VELOX-II                
1 41171U 15077F   24054.79688747  .00066333  00000+0  12670-2 0  9993
2 41171  14.9883 229.0603 0002216 187.2663 172.7630 15.46241164453928
HORYU-4                 
1 41340U 16012D   24054.93877999  .00011352  00000+0  61939-3 0  9990
2 41340  31.0041 358.2266 0011520 254.9452 104.9912 15.13052928440814
E-ST@R-II               
1 41459U 16025D   24055.39747541  .00116925  00000+0  13069-2 0  9997
2 41459  98.1457 291.5468 0053469 286.2522  73.2855 15.60570810431751
RAVAN                   
1 41849U 16067B   24055.46388617  .00010242  00000+0  61231-3 0  9999
2 41849  98.0553 226.7817 0014704  57.2861 302.9783 15.11191366398798
CELTEE 1                
1 41850U 16067C   24054.72633788  .00006995  00000+0  50095-3 0  9997
2 41850  98.0892 218.5748 0000550 150.9660 209.1595 15.04740139398205
OPTICUBE 04             
1 41851U 16067D   24054.91618912  .00003956  00000+0  30861-3 0  9994
2 41851  98.0622 215.2521 0017705  78.1546 282.1662 15.01660036398080
AEROCUBE 8D             
1 41852U 16067E   24055.39362942  .00008226  00000+0  57407-3 0  9997
2 41852  98.0939 218.7619 0005698 123.9529 236.2239 15.05640632398260
AEROCUBE 8C             
1 41853U 16067F   24054.40545470  .00007032  00000+0  49251-3 0  9990
2 41853  98.0729 216.5985 0008939  66.3228 293.8935 15.05543687398104
PROMETHEUS 2-1          
1 41854U 16067G   24055.00260266  .00015050  00000+0  86665-3 0  9994
2 41854  98.0901 222.8879 0014393  84.7322 275.5549 15.12444705398454
PROMETHEUS 2-3          
1 41855U 16067H   24054.99815725  .00015296  00000+0  88156-3 0  9997
2 41855  98.0823 222.4832 0012225  94.1545 266.1082 15.12435050398458
DIDO-2                  
1 42000U 17008BE  24055.13561519  .00064284  00000+0  82982-3 0  9994
2 42000  97.1607 114.3668 0004296 184.7012 175.4205 15.58764331390897
AALTO-1                 
1 42775U 17036L   24055.04846175  .00042873  00000+0  73791-3 0  9996
2 42775  97.1230  84.7408 0004451 259.6075 100.4676 15.50963234371337
URSA MAIOR              
1 42776U 17036M   24054.87369774  .00063381  00000+0  86272-3 0  9997
2 42776  97.1216  87.1979 0003792 241.4395 118.6480 15.57350160371466
DIAMOND RED             
1 42783U 17036U   24054.55818078  .00124499  00000+0  10432-2 0  9998
2 42783  97.1113  92.1869 0002295 228.2464 131.8602 15.69573678371761
